[{"OBJECT_NAME":"ONEWEB-0403","OBJECT_ID":"2021-132Q","EPOCH":"2025-09-27T21:19:21.642816","MEAN_MOTION":13.18685125,"ECCENTRICITY":0.00018419,"INCLINATION":87.9214,"RA_OF_ASC_NODE":27.5351,"ARG_OF_PERICENTER":97.7869,"MEAN_ANOMALY":262.3472,"EPHEMERIS_TYPE":0,"CLASSIFICATION_TYPE":"U","NORAD_CAT_ID":50483,"ELEMENT_SET_NO":999,"REV_AT_EPOCH":18702,"BSTAR":-0.00053260107,"MEAN_MOTION_DOT":-1.97e-6,"MEAN_MOTION_DDOT":0},{"OBJECT_NAME":"ONEWEB-0404","OBJECT_ID":"2021-132R","EPOCH":"2025-09-27T20:53:39.486624","MEAN_MOTION":13.11415377,"ECCENTRICITY":0.00019614,"INCLINATION":87.8791,"RA_OF_ASC_NODE":73.3246,"ARG_OF_PERICENTER":85.2489,"MEAN_ANOMALY":274.8863,"EPHEMERIS_TYPE":0,"CLASSIFICATION_TYPE":"U","NORAD_CAT_ID":50484,"ELEMENT_SET_NO":999,"REV_AT_EPOCH":18131,"BSTAR":-0.0014477264,"MEAN_MOTION_DOT":-5.0e-6,"MEAN_MOTION_DDOT":0},{"OBJECT_NAME":"ONEWEB-0405","OBJECT_ID":"2021-132S","EPOCH":"2025-09-28T06:47:03.638400","MEAN_MOTION":13.18686452,"ECCENTRICITY":0.00014818,"INCLINATION":87.9213,"RA_OF_ASC_NODE":27.4419,"ARG_OF_PERICENTER":92.0698,"MEAN_ANOMALY":268.0604,"EPHEMERIS_TYPE":0,"CLASSIFICATION_TYPE":"U","NORAD_CAT_ID":50485,"ELEMENT_SET_NO":999,"REV_AT_EPOCH":18747,"BSTAR":0.00035483336,"MEAN_MOTION_DOT":1.53e-6,"MEAN_MOTION_DDOT":0},{"OBJECT_NAME":"ONEWEB-0406","OBJECT_ID":"2021-132T","EPOCH":"2025-09-27T19:37:13.934496","MEAN_MOTION":13.18685736,"ECCENTRICITY":0.0002294,"INCLINATION":87.9215,"RA_OF_ASC_NODE":27.5582,"ARG_OF_PERICENTER":98.6614,"MEAN_ANOMALY":261.4778,"EPHEMERIS_TYPE":0,"CLASSIFICATION_TYPE":"U","NORAD_CAT_ID":50486,"ELEMENT_SET_NO":999,"REV_AT_EPOCH":18704,"BSTAR":3.8148708e-5,"MEAN_MOTION_DOT":2.8e-7,"MEAN_MOTION_DDOT":0},{"OBJECT_NAME":"ONEWEB-0407","OBJECT_ID":"2021-132U","EPOCH":"2025-09-28T06:23:17.786976","MEAN_MOTION":13.18687477,"ECCENTRICITY":0.00015311,"INCLINATION":87.9214,"RA_OF_ASC_NODE":27.4533,"ARG_OF_PERICENTER":102.7569,"MEAN_ANOMALY":257.3735,"EPHEMERIS_TYPE":0,"CLASSIFICATION_TYPE":"U","NORAD_CAT_ID":50487,"ELEMENT_SET_NO":999,"REV_AT_EPOCH":18704,"BSTAR":0.00030309333,"MEAN_MOTION_DOT":1.32e-6,"MEAN_MOTION_DDOT":0},{"OBJECT_NAME":"ONEWEB-0409","OBJECT_ID":"2021-132V","EPOCH":"2025-09-28T00:30:57.260448","MEAN_MOTION":13.11414209,"ECCENTRICITY":0.00019622,"INCLINATION":87.8796,"RA_OF_ASC_NODE":73.2545,"ARG_OF_PERICENTER":91.1359,"MEAN_ANOMALY":268.9994,"EPHEMERIS_TYPE":0,"CLASSIFICATION_TYPE":"U","NORAD_CAT_ID":50488,"ELEMENT_SET_NO":999,"REV_AT_EPOCH":18122,"BSTAR":-0.0017890459,"MEAN_MOTION_DOT":-6.21e-6,"MEAN_MOTION_DDOT":0},{"OBJECT_NAME":"ONEWEB-0412","OBJECT_ID":"2021-132W","EPOCH":"2025-09-28T06:06:40.389696","MEAN_MOTION":13.18685526,"ECCENTRICITY":0.00014035,"INCLINATION":87.9214,"RA_OF_ASC_NODE":27.4681,"ARG_OF_PERICENTER":95.6123,"MEAN_ANOMALY":264.517,"EPHEMERIS_TYPE":0,"CLASSIFICATION_TYPE":"U","NORAD_CAT_ID":50489,"ELEMENT_SET_NO":999,"REV_AT_EPOCH":18713,"BSTAR":0.00013670767,"MEAN_MOTION_DOT":6.7e-7,"MEAN_MOTION_DDOT":0},{"OBJECT_NAME":"ONEWEB-0413","OBJECT_ID":"2021-132X","EPOCH":"2025-09-28T06:13:48.201024","MEAN_MOTION":13.18686727,"ECCENTRICITY":0.00014862,"INCLINATION":87.9214,"RA_OF_ASC_NODE":27.4836,"ARG_OF_PERICENTER":106.5366,"MEAN_ANOMALY":253.593,"EPHEMERIS_TYPE":0,"CLASSIFICATION_TYPE":"U","NORAD_CAT_ID":50490,"ELEMENT_SET_NO":999,"REV_AT_EPOCH":18707,"BSTAR":-9.0613466e-5,"MEAN_MOTION_DOT":-2.3e-7,"MEAN_MOTION_DDOT":0},{"OBJECT_NAME":"ONEWEB-0414","OBJECT_ID":"2021-132Y","EPOCH":"2025-09-28T05:52:25.193856","MEAN_MOTION":13.18685278,"ECCENTRICITY":0.00015721,"INCLINATION":87.9213,"RA_OF_ASC_NODE":27.4464,"ARG_OF_PERICENTER":92.8812,"MEAN_ANOMALY":267.25,"EPHEMERIS_TYPE":0,"CLASSIFICATION_TYPE":"U","NORAD_CAT_ID":50491,"ELEMENT_SET_NO":999,"REV_AT_EPOCH":18710,"BSTAR":0.00020815686,"MEAN_MOTION_DOT":9.5e-7,"MEAN_MOTION_DDOT":0},{"OBJECT_NAME":"ONEWEB-0417","OBJECT_ID":"2021-132Z","EPOCH":"2025-09-27T19:08:43.234368","MEAN_MOTION":13.18685161,"ECCENTRICITY":0.00018963,"INCLINATION":87.9214,"RA_OF_ASC_NODE":27.5683,"ARG_OF_PERICENTER":94.4168,"MEAN_ANOMALY":265.7181,"EPHEMERIS_TYPE":0,"CLASSIFICATION_TYPE":"U","NORAD_CAT_ID":50492,"ELEMENT_SET_NO":999,"REV_AT_EPOCH":18702,"BSTAR":-1.9588833e-5,"MEAN_MOTION_DOT":5.0e-8,"MEAN_MOTION_DDOT":0},{"OBJECT_NAME":"ONEWEB-0418","OBJECT_ID":"2021-132AA","EPOCH":"2025-09-28T06:18:21.693312","MEAN_MOTION":13.18686537,"ECCENTRICITY":0.00021681,"INCLINATION":87.9214,"RA_OF_ASC_NODE":27.4615,"ARG_OF_PERICENTER":92.7459,"MEAN_ANOMALY":267.3921,"EPHEMERIS_TYPE":0,"CLASSIFICATION_TYPE":"U","NORAD_CAT_ID":50493,"ELEMENT_SET_NO":999,"REV_AT_EPOCH":18714,"BSTAR":0.00033808592,"MEAN_MOTION_DOT":1.46e-6,"MEAN_MOTION_DDOT":0},{"OBJECT_NAME":"ONEWEB-0419","OBJECT_ID":"2021-132AB","EPOCH":"2025-09-28T06:44:41.156160","MEAN_MOTION":13.18687005,"ECCENTRICITY":0.00020587,"INCLINATION":87.921,"RA_OF_ASC_NODE":27.4585,"ARG_OF_PERICENTER":102.379,"MEAN_ANOMALY":257.7572,"EPHEMERIS_TYPE":0,"CLASSIFICATION_TYPE":"U","NORAD_CAT_ID":50494,"ELEMENT_SET_NO":999,"REV_AT_EPOCH":18706,"BSTAR":0.00030441449,"MEAN_MOTION_DOT":1.33e-6,"MEAN_MOTION_DDOT":0},{"OBJECT_NAME":"ONEWEB-0420","OBJECT_ID":"2021-132AC","EPOCH":"2025-09-27T20:48:29.003040","MEAN_MOTION":13.18684187,"ECCENTRICITY":0.00013874,"INCLINATION":87.9213,"RA_OF_ASC_NODE":27.5513,"ARG_OF_PERICENTER":107.6717,"MEAN_ANOMALY":252.4567,"EPHEMERIS_TYPE":0,"CLASSIFICATION_TYPE":"U","NORAD_CAT_ID":50495,"ELEMENT_SET_NO":999,"REV_AT_EPOCH":18700,"BSTAR":-0.00024250678,"MEAN_MOTION_DOT":-8.3e-7,"MEAN_MOTION_DDOT":0},{"OBJECT_NAME":"ONEWEB-0421","OBJECT_ID":"2021-132AD","EPOCH":"2025-09-28T05:45:17.813664","MEAN_MOTION":13.18686762,"ECCENTRICITY":0.00015166,"INCLINATION":87.9214,"RA_OF_ASC_NODE":27.4708,"ARG_OF_PERICENTER":91.2827,"MEAN_ANOMALY":268.8478,"EPHEMERIS_TYPE":0,"CLASSIFICATION_TYPE":"U","NORAD_CAT_ID":50496,"ELEMENT_SET_NO":999,"REV_AT_EPOCH":18709,"BSTAR":0.00036894101,"MEAN_MOTION_DOT":1.58e-6,"MEAN_MOTION_DDOT":0},{"OBJECT_NAME":"ONEWEB-0424","OBJECT_ID":"2021-132AE","EPOCH":"2025-09-28T06:37:32.848896","MEAN_MOTION":13.18686854,"ECCENTRICITY":0.00020547,"INCLINATION":87.9214,"RA_OF_ASC_NODE":27.4584,"ARG_OF_PERICENTER":106.8859,"MEAN_ANOMALY":253.2498,"EPHEMERIS_TYPE":0,"CLASSIFICATION_TYPE":"U","NORAD_CAT_ID":50497,"ELEMENT_SET_NO":999,"REV_AT_EPOCH":18712,"BSTAR":0.00016756075,"MEAN_MOTION_DOT":7.9e-7,"MEAN_MOTION_DDOT":0},{"OBJECT_NAME":"ONEWEB-0426","OBJECT_ID":"2021-132AF","EPOCH":"2025-09-28T05:40:33.117024","MEAN_MOTION":13.18685051,"ECCENTRICITY":0.00018494,"INCLINATION":87.9213,"RA_OF_ASC_NODE":27.4586,"ARG_OF_PERICENTER":76.2984,"MEAN_ANOMALY":283.8354,"EPHEMERIS_TYPE":0,"CLASSIFICATION_TYPE":"U","NORAD_CAT_ID":50498,"ELEMENT_SET_NO":999,"REV_AT_EPOCH":18706,"BSTAR":0.00028571233,"MEAN_MOTION_DOT":1.26e-6,"MEAN_MOTION_DDOT":0},{"OBJECT_NAME":"ONEWEB-0427","OBJECT_ID":"2021-132AG","EPOCH":"2025-09-27T19:39:35.367840","MEAN_MOTION":13.18687262,"ECCENTRICITY":0.00019104,"INCLINATION":87.9215,"RA_OF_ASC_NODE":27.5303,"ARG_OF_PERICENTER":97.4728,"MEAN_ANOMALY":262.6621,"EPHEMERIS_TYPE":0,"CLASSIFICATION_TYPE":"U","NORAD_CAT_ID":50499,"ELEMENT_SET_NO":999,"REV_AT_EPOCH":18703,"BSTAR":3.1064552e-5,"MEAN_MOTION_DOT":2.5e-7,"MEAN_MOTION_DDOT":0},{"OBJECT_NAME":"ONEWEB-0429","OBJECT_ID":"2021-132AH","EPOCH":"2025-09-28T06:16:09.977376","MEAN_MOTION":13.18685535,"ECCENTRICITY":0.00016145,"INCLINATION":87.9215,"RA_OF_ASC_NODE":27.4733,"ARG_OF_PERICENTER":103.3925,"MEAN_ANOMALY":256.7388,"EPHEMERIS_TYPE":0,"CLASSIFICATION_TYPE":"U","NORAD_CAT_ID":50500,"ELEMENT_SET_NO":999,"REV_AT_EPOCH":18706,"BSTAR":0.00040409489,"MEAN_MOTION_DOT":1.72e-6,"MEAN_MOTION_DDOT":0},{"OBJECT_NAME":"ONEWEB-0430","OBJECT_ID":"2021-132AJ","EPOCH":"2025-09-27T20:53:14.192160","MEAN_MOTION":13.18683404,"ECCENTRICITY":0.0001858,"INCLINATION":87.9215,"RA_OF_ASC_NODE":27.545,"ARG_OF_PERICENTER":108.5928,"MEAN_ANOMALY":251.5406,"EPHEMERIS_TYPE":0,"CLASSIFICATION_TYPE":"U","NORAD_CAT_ID":50501,"ELEMENT_SET_NO":999,"REV_AT_EPOCH":18705,"BSTAR":-0.0004631321,"MEAN_MOTION_DOT":-1.7e-6,"MEAN_MOTION_DDOT":0},{"OBJECT_NAME":"ONEWEB-0432","OBJECT_ID":"2021-132AK","EPOCH":"2025-09-28T06:44:48.319584","MEAN_MOTION":13.18691608,"ECCENTRICITY":0.00026441,"INCLINATION":87.9209,"RA_OF_ASC_NODE":27.4403,"ARG_OF_PERICENTER":99.8238,"MEAN_ANOMALY":260.3193,"EPHEMERIS_TYPE":0,"CLASSIFICATION_TYPE":"U","NORAD_CAT_ID":50502,"ELEMENT_SET_NO":999,"REV_AT_EPOCH":18706,"BSTAR":0.00020053781,"MEAN_MOTION_DOT":9.2e-7,"MEAN_MOTION_DDOT":0},{"OBJECT_NAME":"ONEWEB-0440","OBJECT_ID":"2021-132AL","EPOCH":"2025-09-28T06:28:02.436096","MEAN_MOTION":13.18687244,"ECCENTRICITY":0.00013061,"INCLINATION":87.9216,"RA_OF_ASC_NODE":27.455,"ARG_OF_PERICENTER":93.9324,"MEAN_ANOMALY":266.1958,"EPHEMERIS_TYPE":0,"CLASSIFICATION_TYPE":"U","NORAD_CAT_ID":50503,"ELEMENT_SET_NO":999,"REV_AT_EPOCH":18705,"BSTAR":0.00033004089,"MEAN_MOTION_DOT":1.43e-6,"MEAN_MOTION_DDOT":0},{"OBJECT_NAME":"ONEWEB-0450","OBJECT_ID":"2021-132AM","EPOCH":"2025-09-28T06:18:43.351200","MEAN_MOTION":13.18689433,"ECCENTRICITY":0.00015885,"INCLINATION":87.9213,"RA_OF_ASC_NODE":27.481,"ARG_OF_PERICENTER":110.0434,"MEAN_ANOMALY":250.087,"EPHEMERIS_TYPE":0,"CLASSIFICATION_TYPE":"U","NORAD_CAT_ID":50504,"ELEMENT_SET_NO":999,"REV_AT_EPOCH":18708,"BSTAR":0.00034200809,"MEAN_MOTION_DOT":1.48e-6,"MEAN_MOTION_DDOT":0},{"OBJECT_NAME":"ONEWEB-0410","OBJECT_ID":"2022-012A","EPOCH":"2025-09-27T11:28:31.702944","MEAN_MOTION":13.1764865,"ECCENTRICITY":0.00028258,"INCLINATION":87.9076,"RA_OF_ASC_NODE":58.0883,"ARG_OF_PERICENTER":71.8329,"MEAN_ANOMALY":288.311,"EPHEMERIS_TYPE":0,"CLASSIFICATION_TYPE":"U","NORAD_CAT_ID":51622,"ELEMENT_SET_NO":999,"REV_AT_EPOCH":17910,"BSTAR":-2.8401713e-5,"MEAN_MOTION_DOT":2.0e-8,"MEAN_MOTION_DDOT":0}]
